ONEWEB-0697             
1 61603U 24188K   25151.35936519  .00000157  00000+0  40821-3 0  9994
2 61603  87.8813  97.2040 0002652  96.9477 263.1952 13.11419625 34404
ONEWEB-0698             
1 61604U 24188L   25151.87138309 -.00000546  00000+0 -15760-2 0  9990
2 61604  87.8824  97.1080 0002160 111.7470 248.3888 13.11418256 32537
ONEWEB-0699             
1 61605U 24188M   25151.80982049  .00000527  00000+0  14736-2 0  9991
2 61605  87.8805 112.2982 0002029  96.5488 263.5870 13.10371591 31493
ONEWEB-0700             
1 61606U 24188N   25151.81148408 -.00001548  00000+0 -44696-2 0  9990
2 61606  87.8718 112.2287 0002803  88.6685 271.4763 13.10382544 31541
ONEWEB-0701             
1 61607U 24188P   25151.36991652 -.00000407  00000+0 -12013-2 0  9999
2 61607  87.8807 112.3931 0002646 100.1130 260.0296 13.10370285 33308
ONEWEB-0702             
1 61608U 24188Q   25151.84089528  .00000531  00000+0  14632-2 0  9998
2 61608  87.8756  97.1084 0002917  92.1487 267.9975 13.11419941 32580
ONEWEB-0704             
1 61609U 24188R   25151.58739513  .00000231  00000+0  62458-3 0  9993
2 61609  87.8833 112.2748 0003022  92.9481 267.1992 13.10373770 33314
ONEWEB-0705             
1 61610U 24188S   25151.82143276 -.00000038  00000+0 -14385-3 0  9990
2 61610  87.8793 112.2927 0003164  76.0099 284.1380 13.10370050 31658
